OBJECT_NAME,OBJECT_ID,EPOCH,MEAN_MOTION,ECCENTRICITY,INCLINATION,RA_OF_ASC_NODE,ARG_OF_PERICENTER,MEAN_ANOMALY,EPHEMERIS_TYPE,CLASSIFICATION_TYPE,NORAD_CAT_ID,ELEMENT_SET_NO,REV_AT_EPOCH,BSTAR,MEAN_MOTION_DOT,MEAN_MOTION_DDOT
GPS BIIR-5  (PRN 22),2000-040A,2026-06-13T07:15:54.055008,2.00557597,.01210635,54.8518,215.3166,302.4572,56.6362,0,U,26407,999,18987,0,.84E-6,0
GPS BIIR-8  (PRN 16),2003-005A,2026-06-13T02:53:04.778016,2.00560725,.01479349,54.8828,215.1306,53.0735,310.1871,0,U,27663,999,17123,0,.85E-6,0
GPS BIIR-11 (PRN 19),2004-009A,2026-06-12T10:14:42.279936,2.00554796,.01159592,54.8338,275.8797,172.8673,203.0344,0,U,28190,999,16285,0,-.36E-6,0
GPS BIIR-13 (PRN 02),2004-045A,2026-06-12T08:16:10.263936,2.00555574,.01697943,55.1379,325.0909,316.2481,65.1626,0,U,28474,999,15833,0,-.7E-6,0
GPS BIIRM-1 (PRN 17),2005-038A,2026-06-12T08:53:06.015264,2.00565929,.01278306,54.8821,273.3720,296.1147,67.3243,0,U,28874,999,15174,0,-.32E-6,0
INMARSAT 4-F2 (SOUTHPAN/PRN 122),2005-044A,2026-06-13T00:08:45.538368,1.00270846,.00027673,5.0893,43.7049,35.1670,328.1385,0,U,28899,999,7548,0,-.252E-5,0
GPS BIIRM-2 (PRN 31),2006-042A,2026-06-13T03:29:18.139776,2.00570029,.01065424,54.7102,151.4994,54.3122,47.2287,0,U,29486,999,14431,0,.83E-6,0
GPS BIIRM-3 (PRN 12),2006-052A,2026-06-11T22:24:50.439168,2.00557899,.00852431,54.9355,214.2145,90.8058,270.2587,0,U,29601,999,14330,0,.85E-6,0
GPS BIIRM-4 (PRN 15),2007-047A,2026-06-12T05:43:54.122304,2.00555387,.01665904,54.0917,80.2696,87.2801,274.6185,0,U,32260,999,13671,0,-.37E-6,0
COSMOS 2433 (720),2007-052A,2026-06-10T08:18:16.158240,2.13104347,.00022232,65.5811,316.1641,191.9747,168.0168,0,U,32275,999,14491,0,-.36E-6,0
COSMOS 2432 (719),2007-052B,2026-06-11T08:30:05.798592,2.13103380,.0007764,65.5974,316.2581,332.8636,24.5023,0,U,32276,999,14495,0,-.41E-6,0
GPS BIIRM-5 (PRN 29),2007-062A,2026-06-12T13:04:28.368192,2.00559785,.00356553,55.0355,274.3394,165.0856,183.0867,0,U,32384,999,13541,0,-.33E-6,0
COSMOS 2434 (721),2007-065A,2026-06-13T01:36:38.055168,2.13101303,.00011522,64.3199,192.0547,331.0720,206.3088,0,U,32393,999,14368,0,.117E-5,0
COSMOS 2436 (723),2007-065C,2026-06-13T06:12:49.161312,2.13100224,.00172122,64.3263,192.1203,354.2143,102.6396,0,U,32395,999,14364,0,.116E-5,0
GPS BIIRM-6 (PRN 07),2008-012A,2026-06-13T03:32:42.703008,2.00572264,.02112126,54.4968,150.0860,247.7974,109.9435,0,U,32711,999,13367,0,.8E-6,0
GPS BIIRM-8 (PRN 05),2009-043A,2026-06-12T09:12:38.827008,2.00554404,.00537837,56.2072,27.6401,83.0708,95.4600,0,U,35752,999,12326,0,-.64E-6,0
COSMOS 2456 (730),2009-070A,2026-06-13T07:57:59.960736,2.13103825,.00046901,65.0089,71.1038,329.5299,209.1509,0,U,36111,999,12834,0,-.33E-6,0
COSMOS 2457 (733),2009-070B,2026-06-13T03:47:59.285184,2.13101265,.00025977,64.9943,70.9539,125.8287,47.1024,0,U,36112,999,12834,0,-.33E-6,0
COSMOS 2460 (732),2010-007C,2026-06-12T10:59:04.535232,2.13101720,.00021067,65.4233,314.6270,105.7472,251.6480,0,U,36402,999,12662,0,-.47E-6,0
GPS BIIF-1  (PRN 25),2010-022A,2026-06-12T23:17:20.430240,2.00562166,.0126334,54.2705,208.7319,66.1291,294.4342,0,U,36585,999,11750,0,.93E-6,0
BEIDOU-2 IGSO-1 (C06),2010-036A,2026-06-12T22:15:52.384032,1.00272965,.00592216,54.3022,162.9989,225.0163,314.8655,0,U,36828,999,5805,0,-.36E-6,0
BEIDOU-2 G4 (C04),2010-057A,2026-06-13T01:40:42.238848,1.00271104,.00051501,3.6352,68.9726,197.4058,180.1990,0,U,37210,999,5725,0,-.102E-5,0
BEIDOU-2 IGSO-2 (C07),2010-068A,2026-06-11T15:08:58.718688,1.00285295,.00554439,47.5583,271.9034,212.3317,110.6962,0,U,37256,999,5673,0,-.226E-5,0
BEIDOU-2 IGSO-3 (C08),2011-013A,2026-06-10T17:11:36.843360,1.00268972,.00343535,62.3981,40.2143,184.2630,40.3873,0,U,37384,999,5559,0,-.195E-5,0
GSAT-8 (GAGAN/PRN 127),2011-022A,2026-06-13T01:26:16.548000,1.00272117,.00023511,2.1200,81.8704,204.5094,51.6413,0,U,37605,999,5317,0,.96E-6,0
BEIDOU-2 IGSO-4 (C09),2011-038A,2026-06-11T23:34:21.681696,1.00285652,.01593513,54.5997,165.7200,231.3459,310.0324,0,U,37763,999,5459,0,.9E-6,0
GSAT0101 (GALILEO-PFM),2011-060A,2026-06-09T19:25:33.565728,1.70475644,.00032151,56.9968,341.9613,49.6311,310.4133,0,U,37846,999,9099,0,-.62E-6,0
GSAT0102 (GALILEO-FM2),2011-060B,2026-06-07T09:39:10.082592,1.70476015,.00034343,57.0009,342.0270,13.7700,354.5257,0,U,37847,999,9096,0,-.63E-6,0
COSMOS 2476 (744),2011-064A,2026-06-12T12:18:34.274016,2.13103940,.00227512,65.2671,73.0295,239.0136,299.6480,0,U,37867,999,11366,0,-.32E-6,0
COSMOS 2477 (745),2011-064B,2026-06-13T04:09:58.519008,2.13103103,.00198843,65.2740,73.0865,240.5145,265.3672,0,U,37868,999,11367,0,-.31E-6,0
COSMOS 2475 (743),2011-064C,2026-06-13T05:06:46.528128,2.13101955,.00255895,65.2809,73.1067,253.3203,237.9576,0,U,37869,999,11368,0,-.31E-6,0
