NAVSTAR 48 (USA 151)    
1 26407U 00040A   26164.30270897  .00000084  00000+0  00000+0 0  9998
2 26407  54.8518 215.3166 0121063 302.4572  56.6362  2.00557597189873
NAVSTAR 51 (USA 166)    
1 27663U 03005A   26164.12019419  .00000085  00000+0  00000+0 0  9999
2 27663  54.8828 215.1306 0147934  53.0735 310.1871  2.00560725171232
NAVSTAR 54 (USA 177)    
1 28190U 04009A   26163.42687824 -.00000036  00000+0  00000+0 0  9990
2 28190  54.8338 275.8797 0115959 172.8673 203.0344  2.00554796162858
NAVSTAR 56 (USA 180)    
1 28474U 04045A   26163.34456324 -.00000070  00000+0  00000+0 0  9993
2 28474  55.1379 325.0909 0169794 316.2481  65.1626  2.00555574158335
NAVSTAR 57 (USA 183)    
1 28874U 05038A   26163.37020851 -.00000032  00000+0  00000+0 0  9993
2 28874  54.8821 273.3720 0127830 296.1147  67.3243  2.00565929151745
INMARSAT 4-F2           
1 28899U 05044A   26164.00608262 -.00000252  00000+0  00000+0 0  9990
2 28899   5.0893  43.7049 0002767  35.1670 328.1385  1.00270846 75486
NAVSTAR 58 (USA 190)    
1 29486U 06042A   26164.14534884  .00000083  00000+0  00000+0 0  9996
2 29486  54.7102 151.4994 0106542  54.3122  47.2287  2.00570029144316
NAVSTAR 59 (USA 192)    
1 29601U 06052A   26162.93391712  .00000085  00000+0  00000+0 0  9994
2 29601  54.9355 214.2145 0085243  90.8058 270.2587  2.00557899143309
NAVSTAR 60 (USA 196)    
1 32260U 07047A   26163.23882086 -.00000037  00000+0  00000+0 0  9995
2 32260  54.0917  80.2696 0166590  87.2801 274.6185  2.00555387136711
COSMOS 2433 [GLONASS-M] 
1 32275U 07052A   26161.34602035 -.00000036  00000+0  00000+0 0  9990
2 32275  65.5811 316.1641 0002223 191.9747 168.0168  2.13104347144910
COSMOS 2432 [GLONASS-M] 
1 32276U 07052B   26162.35423378 -.00000041  00000+0  00000+0 0  9990
2 32276  65.5974 316.2581 0007764 332.8636  24.5023  2.13103380144959
NAVSTAR 61 (USA 199)    
1 32384U 07062A   26163.54477278 -.00000033  00000+0  00000+0 0  9992
2 32384  55.0355 274.3394 0035655 165.0856 183.0867  2.00559785135410
COSMOS 2434 [GLONASS-M] 
1 32393U 07065A   26164.06710712  .00000117  00000+0  00000+0 0  9998
2 32393  64.3199 192.0547 0001152 331.0720 206.3088  2.13101303143680
COSMOS 2436 [GLONASS-M] 
1 32395U 07065C   26164.25890233  .00000116  00000+0  00000+0 0  9997
2 32395  64.3263 192.1203 0017212 354.2143 102.6396  2.13100224143641
NAVSTAR 62 (USA 201)    
1 32711U 08012A   26164.14771647  .00000080  00000+0  00000+0 0  9997
2 32711  54.4968 150.0860 0211212 247.7974 109.9435  2.00572264133670
NAVSTAR 64 (USA 206)    
1 35752U 09043A   26163.38378272 -.00000064  00000+0  00000+0 0  9995
2 35752  56.2072  27.6401 0053783  83.0708  95.4600  2.00554404123260
COSMOS 2456 [GLONASS-M] 
1 36111U 09070A   26164.33194399 -.00000033  00000+0  00000+0 0  9993
2 36111  65.0089  71.1038 0004690 329.5299 209.1509  2.13103825128349
COSMOS 2457 [GLONASS-M] 
1 36112U 09070B   26164.15832506 -.00000033  00000+0  00000+0 0  9993
2 36112  64.9943  70.9539 0002597 125.8287  47.1024  2.13101265128346
COSMOS 2460 [GLONASS-M] 
1 36402U 10007C   26163.45769138 -.00000047  00000+0  00000+0 0  9994
2 36402  65.4233 314.6270 0002106 105.7472 251.6480  2.13101720126628
NAVSTAR 65 (USA 213)    
1 36585U 10022A   26163.97037535  .00000093  00000+0  00000+0 0  9999
2 36585  54.2705 208.7319 0126334  66.1291 294.4342  2.00562166117506
BEIDOU-2 IGSO-1         
1 36828U 10036A   26163.92768963 -.00000036  00000+0  00000+0 0  9993
2 36828  54.3022 162.9989 0059221 225.0163 314.8655  1.00272965 58059
BEIDOU-2 G4             
1 37210U 10057A   26164.06993332 -.00000102  00000+0  00000+0 0  9992
2 37210   3.6352  68.9726 0005150 197.4058 180.1990  1.00271104 57250
BEIDOU-2 IGSO-2         
1 37256U 10068A   26162.63123517 -.00000226  00000+0  00000+0 0  9992
2 37256  47.5583 271.9034 0055443 212.3317 110.6962  1.00285295 56731
BEIDOU-2 IGSO-3         
1 37384U 11013A   26161.71639865 -.00000195  00000+0  00000+0 0  9996
2 37384  62.3981  40.2143 0034353 184.2630  40.3873  1.00268972 55596
GSAT-8                  
1 37605U 11022A   26164.05991375  .00000096  00000+0  00000+0 0  9998
2 37605   2.1200  81.8704 0002351 204.5094  51.6413  1.00272117 53178
BEIDOU-2 IGSO-4         
1 37763U 11038A   26162.98219539  .00000090  00000+0  00000+0 0  9999
2 37763  54.5997 165.7200 0159351 231.3459 310.0324  1.00285652 54594
GSAT0101 (GALILEO-PFM)  
1 37846U 11060A   26160.80941627 -.00000062  00000+0  00000+0 0  9995
2 37846  56.9968 341.9613 0003215  49.6311 310.4133  1.70475644 90995
GSAT0102 (GALILEO-FM2)  
1 37847U 11060B   26158.40220003 -.00000063  00000+0  00000+0 0  9998
2 37847  57.0009 342.0270 0003434  13.7700 354.5257  1.70476015 90968
COSMOS 2476 [GLONASS-M] 
1 37867U 11064A   26163.51289669 -.00000032  00000+0  00000+0 0  9991
2 37867  65.2671  73.0295 0022751 239.0136 299.6480  2.13103940113665
COSMOS 2477 [GLONASS-M] 
1 37868U 11064B   26164.17359397 -.00000031  00000+0  00000+0 0  9990
2 37868  65.2740  73.0865 0019884 240.5145 265.3672  2.13103103113671
COSMOS 2475 [GLONASS-M] 
1 37869U 11064C   26164.21303852 -.00000031  00000+0  00000+0 0  9991
2 37869  65.2809  73.1067 0025589 253.3203 237.9576  2.13101955113681
